TIANMU-1 21             
1 58662U 23208C   26204.80924806  .00011371  00000+0  32973-3 0  9992
2 58662  97.4527 324.8306 0007489 173.6458 186.4881 15.35677870143183
TIANMU-1 22             
1 58663U 23208D   26204.86257363  .00008602  00000+0  28507-3 0  9997
2 58663  97.4519 321.2725 0003572 184.3207 175.8003 15.31523375142948
TIANMU-1 15             
1 58700U 24004A   26204.86307229  .00006271  00000+0  23943-3 0  9990
2 58700  97.4676  31.0554 0006800 194.2153 165.8896 15.26983046141371
TIANMU-1 16             
1 58701U 24004B   26204.85195133  .00005926  00000+0  22579-3 0  9999
2 58701  97.4623  30.2563 0005067 207.9232 152.1736 15.27085791141372
TIANMU-1 17             
1 58702U 24004C   26204.83744653  .00005740  00000+0  21884-3 0  9997
2 58702  97.4651  30.7400 0004466 212.7163 147.3800 15.27083076141369
TIANMU-1 18             
1 58703U 24004D   26204.87955038  .00006060  00000+0  23147-3 0  9993
2 58703  97.4668  31.0457 0004550 189.0670 171.0487 15.26997410141378
INSAT-3DS               
1 58990U 24033A   26204.84245840 -.00000151  00000+0  00000+0 0  9998
2 58990   0.0702 261.7061 0001280 217.0954 208.1041  1.00273491 47435
METEOR-M2 4             
1 59051U 24039A   26204.83157499  .00000016  00000+0  26973-4 0  9995
2 59051  98.7038 163.6733 0008180  67.3015 292.9027 14.22432851124476
GOES 19                 
1 60133U 24119A   26204.52617139 -.00000244  00000+0  00000+0 0  9997
2 60133   0.0205 124.2755 0000325  46.6739 244.5382  1.00272112  7329
MTG-S1                  
1 64723U 25143A   26204.88030727 -.00000001  00000+0  00000+0 0  9996
2 64723   0.5801 347.0423 0003162 255.0842  16.0827  1.00276145  3787
METOP-SGA1              
1 65159U 25172A   26204.42206544  .00000016  00000+0  27353-4 0  9994
2 65159  98.6622 263.4060 0001469  90.8416 269.2930 14.21503390 48933
FENGYUN 3H              
1 65815U 25219A   26204.33108601  .00000025  00000+0  32075-4 0  9997
2 65815  98.6770 144.3987 0000966  63.6430 296.4846 14.19925773 42512
