OBJECT_NAME,OBJECT_ID,EPOCH,MEAN_MOTION,ECCENTRICITY,INCLINATION,RA_OF_ASC_NODE,ARG_OF_PERICENTER,MEAN_ANOMALY,EPHEMERIS_TYPE,CLASSIFICATION_TYPE,NORAD_CAT_ID,ELEMENT_SET_NO,REV_AT_EPOCH,BSTAR,MEAN_MOTION_DOT,MEAN_MOTION_DDOT
TIANMU-1 21,2023-208C,2026-07-23T19:25:19.032384,15.35677870,.0007489,97.4527,324.8306,173.6458,186.4881,0,U,58662,999,14318,.32973E-3,.11371E-3,0
TIANMU-1 22,2023-208D,2026-07-23T20:42:06.361632,15.31523375,.0003572,97.4519,321.2725,184.3207,175.8003,0,U,58663,999,14294,.28507E-3,.8602E-4,0
TIANMU-1 15,2024-004A,2026-07-23T20:42:49.445856,15.26983046,.00068,97.4676,31.0554,194.2153,165.8896,0,U,58700,999,14137,.23943E-3,.6271E-4,0
TIANMU-1 16,2024-004B,2026-07-23T20:26:48.594912,15.27085791,.0005067,97.4623,30.2563,207.9232,152.1736,0,U,58701,999,14137,.22579E-3,.5926E-4,0
TIANMU-1 17,2024-004C,2026-07-23T20:05:55.380192,15.27083076,.0004466,97.4651,30.7400,212.7163,147.3800,0,U,58702,999,14136,.21884E-3,.574E-4,0
TIANMU-1 18,2024-004D,2026-07-23T21:06:33.152832,15.26997410,.000455,97.4668,31.0457,189.0670,171.0487,0,U,58703,999,14137,.23147E-3,.606E-4,0
INSAT-3DS,2024-033A,2026-07-23T20:13:08.405760,1.00273491,.000128,0.0702,261.7061,217.0954,208.1041,0,U,58990,999,4743,0,-.151E-5,0
METEOR-M2 4,2024-039A,2026-07-23T19:57:28.079136,14.22432851,.000818,98.7038,163.6733,67.3015,292.9027,0,U,59051,999,12447,.26973E-4,.16E-6,0
GOES 19,2024-119A,2026-07-23T12:37:41.208096,1.00272112,.0000325,0.0205,124.2755,46.6739,244.5382,0,U,60133,999,732,0,-.244E-5,0
MTG-S1,2025-143A,2026-07-23T21:07:38.548128,1.00276145,.0003162,0.5801,347.0423,255.0842,16.0827,0,U,64723,999,378,0,-.1E-7,0
METOP-SGA1,2025-172A,2026-07-23T10:07:46.454016,14.21503390,.0001469,98.6622,263.4060,90.8416,269.2930,0,U,65159,999,4893,.27353E-4,.16E-6,0
FENGYUN 3H,2025-219A,2026-07-23T07:56:45.831264,14.19925773,.0000966,98.6770,144.3987,63.6430,296.4846,0,U,65815,999,4251,.32075E-4,.25E-6,0
